NORAD_CAT_ID,OBJECT_NAME,OBJECT_TYPE,EPOCH,MEAN_MOTION,ECCENTRICITY,INCLINATION,RA_OF_ASC_NODE,ARG_OF_PERICENTER,MEAN_ANOMALY,BSTAR,MEAN_MOTION_DOT,MEAN_MOTION_DDOT,TLE_LINE0,TLE_LINE1,TLE_LINE2,SEMIMAJOR_AXIS,PERIOD,APOGEE,PERIGEE,DECAYED
53292.0,STARLINK-4159,PAYLOAD,2024-02-25 20:24:21,15.08838909,0.0001328,53.2166,279.0394,90.0778,270.0366,7.1732e-05,8.54e-06,0.0,0 STARLINK-4159,1 53292U 22086BC  24056.85024759  .00000854  00000-0  71732-4 0  9997,2 53292  53.2166 279.0394 0001328  90.0778 270.0366 15.08838909 88882,6917.884,95.438,540.667,538.83,0.0
53292.0,STARLINK-4159,PAYLOAD,2024-02-25 21:59:44,15.08839965,0.0001239,53.2163,278.7425,93.9291,266.1843,0.00010483,1.381e-05,0.0,0 STARLINK-4159,1 53292U 22086BC  24056.91648591  .00001381  00000-0  10483-3 0  9991,2 53292  53.2163 278.7425 0001239  93.9291 266.1843 15.08839965 89052,6917.88,95.438,540.603,538.888,0.0
53292.0,STARLINK-4159,PAYLOAD,2024-02-26 01:10:30,15.08840506,0.0001276,53.2171,278.1485,95.5268,264.587,0.00010286,1.35e-05,0.0,0 STARLINK-4159,1 53292U 22086BC  24057.04896564  .00001350  00000-0  10286-3 0  9998,2 53292  53.2171 278.1485 0001276  95.5268 264.5870 15.08840506 89071,6917.879,95.438,540.627,538.861,0.0
53292.0,STARLINK-4159,PAYLOAD,2024-02-26 18:39:45,15.08833065,0.0001073,53.2158,274.8716,65.9544,294.156,3.7392e-05,3.07e-06,0.0,0 STARLINK-4159,1 53292U 22086BC  24057.77761286  .00000307  00000-0  37392-4 0  9999,2 53292  53.2158 274.8716 0001073  65.9544 294.1560 15.08833065 89021,6917.902,95.438,540.509,539.024,0.0
53292.0,STARLINK-4159,PAYLOAD,2024-02-26 21:50:32,15.08831539,0.0001483,53.2173,274.2832,76.2495,283.8662,2.829e-05,1.62e-06,0.0,0 STARLINK-4159,1 53292U 22086BC  24057.91009603  .00000162  00000-0  28290-4 0  9999,2 53292  53.2173 274.2832 0001483  76.2495 283.8662 15.08831539 89208,6917.906,95.438,540.797,538.745,0.0
53292.0,STARLINK-4159,PAYLOAD,2024-02-27 07:22:50,15.08834718,0.000143,53.2174,272.4989,93.8374,266.2782,4.9408e-05,4.98e-06,0.0,0 STARLINK-4159,1 53292U 22086BC  24058.30753423  .00000498  00000-0  49408-4 0  9995,2 53292  53.2174 272.4989 0001430  93.8374 266.2782 15.08834718 89261,6917.897,95.438,540.751,538.772,0.0
53292.0,STARLINK-4159,PAYLOAD,2024-02-27 20:05:55,15.0883943,0.0001344,53.2167,270.1198,95.258,264.8565,8.1448e-05,1.009e-05,0.0,0 STARLINK-4159,1 53292U 22086BC  24058.83745154  .00001009  00000-0  81448-4 0  9994,2 53292  53.2167 270.1198 0001344  95.2580 264.8565 15.08839430 89189,6917.882,95.438,540.677,538.817,0.0
53292.0,STARLINK-4159,PAYLOAD,2024-02-27 21:41:18,15.08841924,0.000128,53.2164,269.821,93.2837,266.8302,6.0028e-05,6.68e-06,0.0,0 STARLINK-4159,1 53292U 22086BC  24058.90369064  .00000668  00000-0  60028-4 0  9995,2 53292  53.2164 269.8210 0001280  93.2837 266.8302 15.08841924 89359,6917.875,95.437,540.625,538.854,0.0
53292.0,STARLINK-4159,PAYLOAD,2024-02-28 13:35:10,15.08834113,0.0001301,53.2158,266.8467,94.2856,265.8285,0.00013416,1.848e-05,0.0,0 STARLINK-4159,1 53292U 22086BC  24059.56609556  .00001848  00000-0  13416-3 0  9990,2 53292  53.2158 266.8467 0001301  94.2856 265.8285 15.08834113 89451,6917.898,95.438,540.663,538.863,0.0
53292.0,STARLINK-4159,PAYLOAD,2024-02-28 19:56:43,15.08839551,0.0001278,53.2159,265.6575,93.5761,266.5378,9.9252e-05,1.292e-05,0.0,0 STARLINK-4159,1 53292U 22086BC  24059.83105373  .00001292  00000-0  99252-4 0  9994,2 53292  53.2159 265.6575 0001278  93.5761 266.5378 15.08839551 89495,6917.882,95.438,540.631,538.863,0.0
53292.0,STARLINK-4159,PAYLOAD,2024-02-29 07:04:24,15.08842847,0.0001284,53.2161,263.5761,92.9626,267.1513,0.00012445,1.693e-05,0.0,0 STARLINK-4159,1 53292U 22086BC  24060.29473159  .00001693  00000-0  12445-3 0  9999,2 53292  53.2161 263.5761 0001284  92.9626 267.1513 15.08842847 89403,6917.872,95.437,540.625,538.848,0.0
53292.0,STARLINK-4159,PAYLOAD,2024-02-29 13:25:57,15.08843809,0.0001283,53.2159,262.3868,91.897,268.2169,0.00011592,1.558e-05,0.0,0 STARLINK-4159,1 53292U 22086BC  24060.55969078  .00001558  00000-0  11592-3 0  9990,2 53292  53.2159 262.3868 0001283  91.8970 268.2169 15.08843809 89604,6917.869,95.437,540.621,538.846,0.0
53292.0,STARLINK-4159,PAYLOAD,2024-02-29 19:47:29,15.08847052,0.0001279,53.2159,261.1973,92.2305,267.8833,0.00013934,1.931e-05,0.0,0 STARLINK-4159,1 53292U 22086BC  24060.82464776  .00001931  00000-0  13934-3 0  9992,2 53292  53.2159 261.1973 0001279  92.2305 267.8833 15.08847052 89641,6917.859,95.437,540.609,538.839,0.0
53292.0,STARLINK-4159,PAYLOAD,2024-03-01 13:16:44,15.08838786,0.0001256,53.2159,257.9261,92.3314,267.7821,6.2334e-05,7.04e-06,0.0,0 STARLINK-4159,1 53292U 22086BC  24061.55329459  .00000704  00000-0  62334-4 0  9997,2 53292  53.2159 257.9261 0001256  92.3314 267.7821 15.08838786 89752,6917.884,95.438,540.618,538.88,0.0
53292.0,STARLINK-4159,PAYLOAD,2024-03-01 19:38:17,15.08841032,0.0001279,53.2164,256.7367,93.4133,266.7005,4.9245e-05,4.96e-06,0.0,0 STARLINK-4159,1 53292U 22086BC  24061.81825293  .00000496  00000-0  49245-4 0  9997,2 53292  53.2164 256.7367 0001279  93.4133 266.7005 15.08841032 89636,6917.877,95.437,540.627,538.857,0.0
53292.0,STARLINK-4159,PAYLOAD,2024-03-02 19:29:03,15.08843679,0.0001387,53.2169,252.2773,95.9662,264.1488,4.1217e-05,3.68e-06,0.0,0 STARLINK-4159,1 53292U 22086BC  24062.81185070  .00000368  00000-0  41217-4 0  9999,2 53292  53.2169 252.2773 0001387  95.9662 264.1488 15.08843679 89947,6917.869,95.437,540.694,538.775,0.0
53292.0,STARLINK-4159,PAYLOAD,2024-03-03 12:58:18,15.08837805,0.0001443,53.2172,249.0055,103.234,256.8813,6.6425e-05,7.69e-06,0.0,0 STARLINK-4159,1 53292U 22086BC  24063.54049387  .00000769  00000-0  66425-4 0  9993,2 53292  53.2172 249.0055 0001443 103.2340 256.8813 15.08837805 90055,6917.887,95.438,540.75,538.754,0.0
53292.0,STARLINK-4159,PAYLOAD,2024-03-03 17:44:27,15.08840934,0.0001442,53.2172,248.1139,99.6664,260.4491,9.2867e-05,1.19e-05,0.0,0 STARLINK-4159,1 53292U 22086BC  24063.73921159  .00001190  00000-0  92867-4 0  9998,2 53292  53.2172 248.1139 0001442  99.6664 260.4491 15.08840934 90087,6917.878,95.437,540.74,538.745,0.0
53292.0,STARLINK-4159,PAYLOAD,2024-03-04 04:52:09,15.08846093,0.0001412,53.2171,246.0288,86.9375,273.1779,0.00012185,1.652e-05,0.0,0 STARLINK-4159,1 53292U 22086BC  24064.20288727  .00001652  00000-0  12185-3 0  9995,2 53292  53.2171 246.0288 0001412  86.9375 273.1779 15.08846093 89993,6917.862,95.437,540.704,538.75,0.0
53292.0,STARLINK-4159,PAYLOAD,2024-03-04 19:10:37,15.0884708,0.0001482,53.2179,243.3571,104.1832,255.9325,9.4161e-05,1.211e-05,0.0,0 STARLINK-4159,1 53292U 22086BC  24064.79904570  .00001211  00000-0  94161-4 0  9996,2 53292  53.2179 243.3571 0001482 104.1832 255.9325 15.08847080 90246,6917.859,95.437,540.749,538.699,0.0
53292.0,STARLINK-4159,PAYLOAD,2024-03-05 20:36:48,15.08837584,0.0001368,53.2171,238.5985,86.4472,273.6677,9.4058e-06,-1.38e-06,0.0,0 STARLINK-4159,1 53292U 22086BC  24065.85889745 -.00000138  00000-0  94058-5 0  9994,2 53292  53.2171 238.5985 0001368  86.4472 273.6677 15.08837584 90243,6917.888,95.438,540.699,538.806,0.0
53292.0,STARLINK-4159,PAYLOAD,2024-03-06 10:55:17,15.08833015,0.0001512,53.2169,235.9198,87.68,272.4366,-2.8086e-05,-7.35e-06,0.0,0 STARLINK-4159,1 53292U 22086BC  24066.45506304 -.00000735  00000-0 -28086-4 0  9999,2 53292  53.2169 235.9198 0001512  87.6800 272.4366 15.08833015 90490,6917.902,95.438,540.813,538.721,0.0
53292.0,STARLINK-4159,PAYLOAD,2024-03-07 10:46:04,15.08827255,0.0001307,53.2171,231.4591,95.4591,264.655,9.0492e-05,1.152e-05,0.0,0 STARLINK-4159,1 53292U 22086BC  24067.44866682  .00001152  00000-0  90492-4 0  9999,2 53292  53.2171 231.4591 0001307  95.4591 264.6550 15.08827255 90641,6917.919,95.438,540.689,538.88,0.0
53292.0,STARLINK-4159,PAYLOAD,2024-03-08 04:15:18,15.08843266,0.0001477,53.2168,228.1878,94.5798,265.5363,0.00017955,2.571e-05,0.0,0 STARLINK-4159,1 53292U 22086BC  24068.17729737  .00002571  00000-0  17955-3 0  9997,2 53292  53.2168 228.1878 0001477  94.5798 265.5363 15.08843266 90591,6917.87,95.437,540.757,538.714,0.0
53292.0,STARLINK-4159,PAYLOAD,2024-03-08 16:58:24,15.08835103,0.0001284,53.2175,225.809,100.1852,259.9285,0.00021859,3.192e-05,0.0,0 STARLINK-4159,1 53292U 22086BC  24068.70722278  .00003192  00000-0  21859-3 0  9997,2 53292  53.2175 225.8090 0001284 100.1852 259.9285 15.08835103 90670,6917.895,95.438,540.649,538.872,0.0
53292.0,STARLINK-4159,PAYLOAD,2024-03-08 20:09:10,15.0884234,0.0001578,53.2177,225.2143,107.3549,252.7616,8.1018e-05,1.002e-05,0.0,0 STARLINK-4159,1 53292U 22086BC  24068.83970017  .00001002  00000-0  81018-4 0  9999,2 53292  53.2177 225.2143 0001578 107.3549 252.7616 15.08842340 90853,6917.873,95.437,540.83,538.647,0.0
53292.0,STARLINK-4159,PAYLOAD,2024-03-09 10:27:37,15.08862199,0.0001188,53.2172,222.5379,95.756,264.3568,-0.00019684,-3.421e-05,0.0,0 STARLINK-4159,1 53292U 22086BC  24069.43585165 -.00003421  00000-0 -19684-3 0  9990,2 53292  53.2172 222.5379 0001188  95.7560 264.3568 15.08862199 90780,6917.813,95.436,540.499,538.856,0.0
53292.0,STARLINK-4159,PAYLOAD,2024-03-09 16:49:11,15.0883964,0.0001227,53.2149,221.3491,83.9743,276.1389,7.4639e-05,9e-06,0.0,0 STARLINK-4159,1 53292U 22086BC  24069.70082209  .00000900  00000-0  74639-4 0  9990,2 53292  53.2149 221.3491 0001227  83.9743 276.1389 15.08839640 90824,6917.881,95.438,540.595,538.898,0.0
53292.0,STARLINK-4159,PAYLOAD,2024-03-10 19:50:44,15.08833274,0.0001604,53.2165,216.2953,93.0286,267.089,4.3344e-06,-2.19e-06,0.0,0 STARLINK-4159,1 53292U 22086BC  24070.82690828 -.00000219  00000-0  43344-5 0  9991,2 53292  53.2165 216.2953 0001604  93.0286 267.0890 15.08833274 90992,6917.901,95.438,540.876,538.656,0.0
53292.0,STARLINK-4159,PAYLOAD,2024-03-11 02:12:16,15.08844118,0.0001107,53.2137,215.1052,90.7588,269.3531,9.7218e-05,1.26e-05,0.0,0 STARLINK-4159,1 53292U 22086BC  24071.09185917  .00001260  00000-0  97218-4 0  9993,2 53292  53.2137 215.1052 0001107  90.7588 269.3531 15.08844118 91038,6917.868,95.437,540.499,538.967,0.0
